COSMOS 2251 DEB         
1 34819U 93036ABJ 25324.95452752  .00005388  00000+0  10417-2 0  9999
2 34819  74.0191 184.5210 0016419 278.4324 145.1918 14.63541634879102
COSMOS 2251 DEB         
1 34823U 93036ABN 25325.48712501  .00004155  00000+0  83076-3 0  9997
2 34823  74.0393 142.5050 0156310 232.3961 126.2927 14.54686653880729
COSMOS 2251 DEB         
1 34845U 93036ABP 25323.90865360  .00000926  00000+0  26788-3 0  9997
2 34845  74.0248 190.9616 0021461 355.9280   4.1700 14.45798187871360
COSMOS 2251 DEB         
1 34846U 93036ABQ 25325.94536700  .00003440  00000+0  94884-3 0  9993
2 34846  74.0307 300.6560 0025364  10.3530 349.8145 14.47014456871039
COSMOS 2251 DEB         
1 34852U 93036ABW 25324.67241276  .00000390  00000+0  14022-3 0  9997
2 34852  74.0320 303.5568 0015301  53.4854 306.7706 14.36980298872173
COSMOS 2251 DEB         
1 34854U 93036ABY 25324.39944663  .00004174  00000+0  58458-3 0  9993
2 34854  74.0302 202.3619 0066148 318.6673  40.9505 14.76358014715526
COSMOS 2251 DEB         
1 34856U 93036ACA 25325.90336229  .00026989  00000+0  18968-2 0  9995
2 34856  73.9960 127.6441 0035523 265.6389 245.5963 15.04485701887983
COSMOS 2251 DEB         
1 34857U 93036ACB 25325.48921042  .00004220  00000+0  88580-3 0  9994
2 34857  74.0136 147.3513 0066303 275.6511 114.7874 14.58589146875912
